[{"OBJECT_NAME":"HAIYANG-2D","OBJECT_ID":"2021-043A","EPOCH":"2026-03-09T23:01:37.583328","MEAN_MOTION":13.8337425,"ECCENTRICITY":0.00105603,"INCLINATION":65.9986,"RA_OF_ASC_NODE":191.7425,"ARG_OF_PERICENTER":278.687,"MEAN_ANOMALY":81.3002,"EPHEMERIS_TYPE":0,"CLASSIFICATION_TYPE":"U","NORAD_CAT_ID":48621,"ELEMENT_SET_NO":999,"REV_AT_EPOCH":24282,"BSTAR":4.3398589e-5,"MEAN_MOTION_DOT":-3.3e-7,"MEAN_MOTION_DDOT":0},{"OBJECT_NAME":"DELTA 1 DEB","OBJECT_ID":"1978-026AL","EPOCH":"2026-03-09T20:16:21.806112","MEAN_MOTION":13.93990738,"ECCENTRICITY":0.00600067,"INCLINATION":98.9354,"RA_OF_ASC_NODE":18.1923,"ARG_OF_PERICENTER":313.8766,"MEAN_ANOMALY":102.021,"EPHEMERIS_TYPE":0,"CLASSIFICATION_TYPE":"U","NORAD_CAT_ID":12195,"ELEMENT_SET_NO":999,"REV_AT_EPOCH":28953,"BSTAR":0.00023629773,"MEAN_MOTION_DOT":2.74e-6,"MEAN_MOTION_DDOT":0}]
